$$SOE
2460154.500000000, A.D. 2023-Jul-29 00:00:00.0000, 4.786661898273974E+08, 2.168457735233470E+08, 4.042274271568759E+07,
2460161.500000000, A.D. 2023-Aug-05 00:00:00.0000, 4.747106503770602E+08, 2.248222129233474E+08, 4.211561129297136E+07,
2460168.500000000, A.D. 2023-Aug-12 00:00:00.0000, 4.705980837661853E+08, 2.327246224235971E+08, 4.379430440229581E+07,
2460175.500000000, A.D. 2023-Aug-19 00:00:00.0000, 4.663297461908862E+08, 2.405503240130554E+08, 4.545824858007473E+07,
2460182.500000000, A.D. 2023-Aug-26 00:00:00.0000, 4.619069312860871E+08, 2.482966522466121E+08, 4.710687312651220E+07,
2460189.500000000, A.D. 2023-Sep-02 00:00:00.0000, 4.573309702189748E+08, 2.559609543963639E+08, 4.873961015742058E+07,
2460196.500000000, A.D. 2023-Sep-09 00:00:00.0000, 4.526032318126447E+08, 2.635405905058076E+08, 5.035589464605089E+07,
2460203.500000000, A.D. 2023-Sep-16 00:00:00.0000, 4.477251228686624E+08, 2.710329332893025E+08, 5.195516443482450E+07,
2460210.500000000, A.D. 2023-Sep-23 00:00:00.0000, 4.426980891051677E+08, 2.784353681633628E+08, 5.353686020219289E+07,
2460217.500000000, A.D. 2023-Sep-30 00:00:00.0000, 4.375236163700042E+08, 2.857452945994618E+08, 5.510042551278856E+07,
2460224.500000000, A.D. 2023-Oct-07 00:00:00.0000, 4.322032297728992E+08, 2.929601282554085E+08, 5.664530712214190E+07,
2460231.500000000, A.D. 2023-Oct-14 00:00:00.0000, 4.267384917760613E+08, 3.000773005736591E+08, 5.817095517011970E+07,
2460238.500000000, A.D. 2023-Oct-21 00:00:00.0000, 4.211310024721481E+08, 3.070942574498203E+08, 5.967682309814371E+07,
2460245.500000000, A.D. 2023-Oct-28 00:00:00.0000, 4.153824006243403E+08, 3.140084592316493E+08, 6.116236760565868E+07,
2460252.500000000, A.D. 2023-Nov-04 00:00:00.0000, 4.094943642179440E+08, 3.208173812790460E+08, 6.262704869796222E+07,
2460259.500000000, A.D. 2023-Nov-11 00:00:00.0000, 4.034686107011781E+08, 3.275185144859635E+08, 6.407032976061742E+07,
2460266.500000000, A.D. 2023-Nov-18 00:00:00.0000, 3.973068971346636E+08, 3.341093657004282E+08, 6.549167763551980E+07,
2460273.500000000, A.D. 2023-Nov-25 00:00:00.0000, 3.910110203221942E+08, 3.405874580656486E+08, 6.689056269417454E+07,
2460280.500000000, A.D. 2023-Dec-02 00:00:00.0000, 3.845828169505659E+08, 3.469503312715422E+08, 6.826645890505067E+07,
2460287.500000000, A.D. 2023-Dec-09 00:00:00.0000, 3.780241638159190E+08, 3.531955416584600E+08, 6.961884388344420E+07,
2460294.500000000, A.D. 2023-Dec-16 00:00:00.0000, 3.713369784240011E+08, 3.593206621864798E+08, 7.094719889890547E+07,
2460301.500000000, A.D. 2023-Dec-23 00:00:00.0000, 3.645232203129274E+08, 3.653232829581492E+08, 7.225100886473836E+07,
2460308.500000000, A.D. 2023-Dec-30 00:00:00.0000, 3.575848917574438E+08, 3.712010133434325E+08, 7.352976251815479E+07,
2460315.500000000, A.D. 2024-Jan-06 00:00:00.0000, 3.505240360803777E+08, 3.769514833466386E+08, 7.478295276074962E+07,
2460322.500000000, A.D. 2024-Jan-13 00:00:00.0000, 3.433427367440957E+08, 3.825723424104568E+08, 7.601007672117257E+07,
2460329.500000000, A.D. 2024-Jan-20 00:00:00.0000, 3.360431184460753E+08, 3.880612587420948E+08, 7.721063567996438E+07,
2460336.500000000, A.D. 2024-Jan-27 00:00:00.0000, 3.286273481887538E+08, 3.934159198135045E+08, 7.838413509574147E+07,
2460343.500000000, A.D. 2024-Feb-03 00:00:00.0000, 3.210976358940896E+08, 3.986340330876576E+08, 7.953008469451323E+07,
2460350.500000000, A.D. 2024-Feb-10 00:00:00.0000, 3.134562348393431E+08, 4.037133266806071E+08, 8.064799857303464E+07,
2460357.500000000, A.D. 2024-Feb-17 00:00:00.0000, 3.057054420519907E+08, 4.086515499680996E+08, 8.173739530428803E+07,
2460364.500000000, A.D. 2024-Feb-24 00:00:00.0000, 2.978475986988758E+08, 4.134464741523749E+08, 8.279779804319489E+07,
2460371.500000000, A.D. 2024-Mar-02 00:00:00.0000, 2.898850904980404E+08, 4.180958927575285E+08, 8.382873462744007E+07,
2460378.500000000, A.D. 2024-Mar-09 00:00:00.0000, 2.818203482911195E+08, 4.225976219916222E+08, 8.482973765583029E+07,
2460385.500000000, A.D. 2024-Mar-16 00:00:00.0000, 2.736558491708655E+08, 4.269495011740841E+08, 8.580034452444306E+07,
2460392.500000000, A.D. 2024-Mar-23 00:00:00.0000, 2.653941180598550E+08, 4.311493943383770E+08, 8.674009752101168E+07,
2460399.500000000, A.D. 2024-Mar-30 00:00:00.0000, 2.570377274979162E+08, 4.351951929828348E+08, 8.764854418081260E+07,
2460406.500000000, A.D. 2024-Apr-06 00:00:00.0000, 2.485892958917300E+08, 4.390848166029938E+08, 8.852523760558349E+07,
2460413.500000000, A.D. 2024-Apr-13 00:00:00.0000, 2.400514877771558E+08, 4.428162118446592E+08, 8.936973648900411E+07,
2460420.500000000, A.D. 2024-Apr-20 00:00:00.0000, 2.314270151420281E+08, 4.463873529553725E+08, 9.018160515517318E+07,
2460427.500000000, A.D. 2024-Apr-27 00:00:00.0000, 2.227186382909310E+08, 4.497962429733016E+08, 9.096041370348498E+07,
2460434.500000000, A.D. 2024-May-04 00:00:00.0000, 2.139291663383063E+08, 4.530409149513184E+08, 9.170573819473830E+07,
2460441.500000000, A.D. 2024-May-11 00:00:00.0000, 2.050614575669910E+08, 4.561194331159207E+08, 9.241716084879154E+07,
2460448.500000000, A.D. 2024-May-18 00:00:00.0000, 1.961184197330671E+08, 4.590298939839683E+08, 9.309427024848613E+07,
2460455.500000000, A.D. 2024-May-25 00:00:00.0000, 1.871030103406187E+08, 4.617704274311496E+08, 9.373666154735947E+07,
2460462.500000000, A.D. 2024-Jun-01 00:00:00.0000, 1.780182369448592E+08, 4.643391976553591E+08, 9.434393667117190E+07,
2460469.500000000, A.D. 2024-Jun-08 00:00:00.0000, 1.688671577280763E+08, 4.667344040124498E+08, 9.491570448886552E+07,
2460476.500000000, A.D. 2024-Jun-15 00:00:00.0000, 1.596528827456092E+08, 4.689542822702579E+08, 9.545158096104729E+07,
2460483.500000000, A.D. 2024-Jun-22 00:00:00.0000, 1.503785748345440E+08, 4.709971074569943E+08, 9.595118945450315E+07,
2460490.500000000, A.D. 2024-Jun-29 00:00:00.0000, 1.410474480606354E+08, 4.728611964831401E+08, 9.641416126858914E+07,
2460497.500000000, A.D. 2024-Jul-06 00:00:00.0000, 1.316627663446183E+08, 4.745449080675657E+08, 9.684013592973691E+07,
2460504.500000000, A.D. 2024-Jul-13 00:00:00.0000, 1.222278442158420E+08, 4.760466427957362E+08, 9.722876130746335E+07,
2460511.500000000, A.D. 2024-Jul-20 00:00:00.0000, 1.127460477070384E+08, 4.773648444599548E+08, 9.757969382836613E+07,
2460518.500000000, A.D. 2024-Jul-27 00:00:00.0000, 1.032207947323994E+08, 4.784980017222127E+08, 9.789259876982439E+07,
2460525.500000000, A.D. 2024-Aug-03 00:00:00.0000, 9.365555521954723E+07, 4.794446497249733E+08, 9.816715057764617E+07,
2460532.500000000, A.D. 2024-Aug-10 00:00:00.0000, 8.405385115864688E+07, 4.802033716458668E+08, 9.840303319193166E+07,
2460539.500000000, A.D. 2024-Aug-17 00:00:00.0000, 7.441925661329366E+07, 4.807728002184914E+08, 9.859994037835506E+07,
2460546.500000000, A.D. 2024-Aug-24 00:00:00.0000, 6.475539771814276E+07, 4.811516191975511E+08, 9.875757606021821E+07,
2460553.500000000, A.D. 2024-Aug-31 00:00:00.0000, 5.506595277585931E+07, 4.813385647073039E+08, 9.887565463536558E+07,
2460560.500000000, A.D. 2024-Sep-07 00:00:00.0000, 4.535465281564459E+07, 4.813324266002744E+08, 9.895390125454628E+07,
2460567.500000000, A.D. 2024-Sep-14 00:00:00.0000, 3.562528269545709E+07, 4.811320508231314E+08, 9.899205213475284E+07,
2460574.500000000, A.D. 2024-Sep-21 00:00:00.0000, 2.588168071681534E+07, 4.807363432027450E+08, 9.898985512710777E+07,
2460581.500000000, A.D. 2024-Sep-28 00:00:00.0000, 1.612773626156274E+07, 4.801442714227266E+08, 9.894707031936133E+07,
2460588.500000000, A.D. 2024-Oct-05 00:00:00.0000, 6.367389115172421E+06, 4.793548651916467E+08, 9.886347033638290E+07,
2460595.500000000, A.D. 2024-Oct-12 00:00:00.0000, -3.395369887463855E+06, 4.783672175847346E+08, 9.873884061570787E+07,
2460602.500000000, A.D. 2024-Oct-19 00:00:00.0000, -1.315649864736946E+07, 4.771804872878520E+08, 9.857297979636881E+07,
2460609.500000000, A.D. 2024-Oct-26 00:00:00.0000, -2.291190405394823E+07, 4.757939009410910E+08, 9.836570015810332E+07,
2460616.500000000, A.D. 2024-Nov-02 00:00:00.0000, -3.265744245116612E+07, 4.742067554326946E+08, 9.811682807499319E+07,
2460623.500000000, A.D. 2024-Nov-09 00:00:00.0000, -4.238892022473709E+07, 4.724184201631718E+08, 9.782620447620735E+07,
2460630.500000000, A.D. 2024-Nov-16 00:00:00.0000, -5.210209448829585E+07, 4.704283392788996E+08, 9.749368531132442E+07,
2460637.500000000, A.D. 2024-Nov-23 00:00:00.0000, -6.179267382557437E+07, 4.682360338240857E+08, 9.711914201165807E+07,
2460644.500000000, A.D. 2024-Nov-30 00:00:00.0000, -7.145631888437104E+07, 4.658411037669465E+08, 9.670246192477432E+07,
2460651.500000000, A.D. 2024-Dec-07 00:00:00.0000, -8.108864240722048E+07, 4.632432303191694E+08, 9.624354871794242E+07,
2460658.500000000, A.D. 2024-Dec-14 00:00:00.0000, -9.068520939167763E+07, 4.604421797716087E+08, 9.574232291371199E+07,
2460665.500000000, A.D. 2024-Dec-21 00:00:00.0000, -1.002415397017371E+08, 4.574378076036478E+08, 9.519872266852826E+07,
2460672.500000000, A.D. 2024-Dec-28 00:00:00.0000, -1.097531111613261E+08, 4.542300598937957E+08, 9.461270436979941E+07,
2460679.500000000, A.D. 2025-Jan-04 00:00:00.0000, -1.192153605385828E+08, 4.508189744040073E+08, 9.398424300695866E+07,
2460686.500000000, A.D. 2025-Jan-11 00:00:00.0000, -1.286236842467767E+08, 4.472046829961017E+08, 9.331333261922374E+07,
2460693.500000000, A.D. 2025-Jan-18 00:00:00.0000, -1.379734396822439E+08, 4.433874144579473E+08, 9.259998682840103E+07,
2460700.500000000, A.D. 2025-Jan-25 00:00:00.0000, -1.472599469598483E+08, 4.393674972602597E+08, 9.184423939480612E+07,
2460707.500000000, A.D. 2025-Feb-01 00:00:00.0000, -1.564784908605088E+08, 4.351453622092433E+08, 9.104614477569404E+07,
2460714.500000000, A.D. 2025-Feb-08 00:00:00.0000, -1.656243229360819E+08, 4.307215450096288E+08, 9.020577868153107E+07,
2460721.500000000, A.D. 2025-Feb-15 00:00:00.0000, -1.746926637463744E+08, 4.260966887121072E+08, 8.932323862466332E+07,
2460728.500000000, A.D. 2025-Feb-22 00:00:00.0000, -1.836787051331191E+08, 4.212715459744829E+08, 8.839864444479650E+07,
$$EOE